satname,norad_id,inclination_deg,eccentricity,mean_motion_rev_per_day,perigee_km,apogee_km,l1,l2
STARLINK-1404,45686,53.1597,0.0002417,15.39044231,447.2842270770698,450.58443335809625,1 45686U 20035AF  26106.85673482  .00031738  00000+0  81529-3 0  9996,2 45686  53.1597 231.1862 0002417 359.2975   0.8026 15.39044231324836
STARLINK-1413,45689,53.1584,0.0001484,15.30811642,472.37265823434245,474.4061912772104,1 45689U 20035AJ  26106.64820388  .00033638  00000+0  11213-2 0  9998,2 45689  53.1584 233.2443 0001484  45.5500 314.5622 15.30811642324707
STARLINK-1417,45693,53.0493,0.0003842,15.14475291,519.9207391740292,525.2232439631507,1 45693U 20035AN  26106.63329222  .00015269  00000+0  83475-3 0  9993,2 45693  53.0493 242.0719 0003842 352.5941   7.4995 15.14475291324646
STARLINK-1420,45695,53.0488,0.000597,15.61628769,378.9154387514218,386.9881787890927,1 45695U 20035AQ  26106.72781651  .00082998  00000+0  94267-3 0  9997,2 45695  53.0488 197.8051 0005970 319.4295  40.6272 15.61628769325286
STARLINK-1422,45696,53.159,0.0002082,15.31011821,471.36582593695766,474.2185528514219,1 45696U 20035AR  26106.78513495  .00046334  00000+0  15279-2 0  9992,2 45696  53.1590 232.5959 0002082  30.7109 329.4013 15.31011821324804
STARLINK-1351,45697,53.0474,0.0006497,15.59168867,385.6639586560477,394.45855547127667,1 45697U 20035AS  26106.55062669  .00031818  00000+0  40345-3 0  9994,2 45697  53.0474 198.3059 0006497 326.2211  33.8386 15.59168867325269
STARLINK-1400,45700,53.0458,0.0005325,15.5770826,390.68514201812195,397.8977783282071,1 45700U 20035AV  26106.75922867  .00053705  00000+0  71304-3 0  9994,2 45700  53.0458 199.1532 0005325 283.4119  76.6299 15.57708260325264
STARLINK-1403,45701,53.1579,0.0009179,15.30989517,466.5701981040438,479.1472560598204,1 45701U 20035AW  26106.63124389  .00812332  00000+0  24731-1 0  9994,2 45701  53.1579 220.4760 0009179 323.8937  36.1444 15.30989517324954
STARLINK-1407,45703,53.0296,0.0002988,15.66484129,366.95775966823476,370.98983308014795,1 45703U 20035AY  26106.78719675  .00033134  00000+0  31604-3 0  9994,2 45703  53.0296 129.0404 0002988 281.3396  78.7283 15.66484129326254
STARLINK-1411,45706,53.0387,0.000596,15.71165939,351.55034238522603,359.5769135337541,1 45706U 20035BB  26106.84544372  .00089840  00000+0  69432-3 0  9999,2 45706  53.0387 153.7305 0005960   1.9477 358.1562 15.71165939325908
STARLINK-1423,45710,53.0455,0.000736,15.6019887,382.1029348011725,392.0613373694896,1 45710U 20035BF  26106.73045511  .00026707  00000+0  32680-3 0  9991,2 45710  53.0455 197.6572 0007360 300.3457  59.6827 15.60198870325277
STARLINK-1433,45711,53.0451,0.0006665,15.62791116,375.0949279674114,384.102990000737,1 45711U 20035BG  26106.95804706  .00069164  00000+0  75298-3 0  9991,2 45711  53.0451 194.9866 0006665 300.9189  59.1169 15.62791116325330
STARLINK-1434,45712,53.0508,0.00029,15.3039173,472.65535186569105,476.62996406731054,1 45712U 20035BH  26106.55676439  .00026912  00000+0  91195-3 0  9996,2 45712  53.0508 204.1491 0002900 284.7982  75.2696 15.30391730325180
STARLINK-1465,45731,53.0489,0.0005382,15.5613773,395.2000308362776,402.49477684857357,1 45731U 20038B   26106.22702638  .00054880  00000+0  77216-3 0  9998,2 45731  53.0489  42.2122 0005382  71.9980 288.1617 15.56137730322217
STARLINK-1471,45735,53.0461,0.0001836,15.5100338,412.5482515602398,415.04224908255674,1 45735U 20038F   26106.88273582  .00014807  00000+0  25798-3 0  9998,2 45735  53.0461 318.7420 0001836  60.0994 300.0197 15.51003380323459
STARLINK-1480,45741,53.0515,0.000301,15.58120781,391.0579079519948,395.1341902475542,1 45741U 20038M   26105.53156067  .00028778  00000+0  38058-3 0  9999,2 45741  53.0515  39.5647 0003010 139.1392 220.9845 15.58120781322205
STARLINK-1500,45744,53.0376,0.0003405,15.36822546,453.18552543142596,457.8392406612802,1 45744U 20038Q   26106.03004044  .00015661  00000+0  43854-3 0  9992,2 45744  53.0376  17.3113 0003405  56.7407 303.3921 15.36822546322557
STARLINK-1504,45746,53.0223,7.45e-05,15.55796992,399.3319020014733,400.3418201067707,1 45746U 20038S   26106.87566375  .00019741  00000+0  28707-3 0  9999,2 45746  53.0223 317.5835 0000745  70.8794 289.2297 15.55796992323450
STARLINK-1506,45747,53.082,0.0003886,15.27260324,481.33985898983883,486.67311690867245,1 45747U 20038T   26106.76072544  .00010206  00000+0  38940-3 0  9995,2 45747  53.0820  26.1307 0003886  31.2127 328.9102 15.27260324322506
STARLINK-1464,45751,53.0502,0.0003266,15.48788007,418.05009490022894,422.4908146496873,1 45751U 20038X   26106.76790786  .00040828  00000+0  75174-3 0  9998,2 45751  53.0502  22.9453 0003266  88.5735 271.5647 15.48788007322543
STARLINK-1477,45754,53.0493,0.0003462,15.16346014,514.5081396491114,519.2822599442507,1 45754U 20038AA  26106.09456575  .00015099  00000+0  78332-3 0  9993,2 45754  53.0493  42.6818 0003462  93.0245 267.1144 15.16346014322203
STARLINK-1478,45755,53.0495,0.0003087,15.61725363,380.58595790214713,384.7600820084672,1 45755U 20038AB  26106.91747595  .00060176  00000+0  68485-3 0  9994,2 45755  53.0495  12.0991 0003087  78.4694 281.6666 15.61725363322698
STARLINK-1493,45759,53.0508,0.000481,15.56857622,393.4993968565859,400.01684596338146,1 45759U 20038AF  26106.92056299  .00052720  00000+0  72280-3 0  9997,2 45759  53.0508  20.0738 0004810 141.2619 218.8738 15.56857622322584
STARLINK-1494,45760,53.0463,0.000399,15.83182149,318.77512559441584,324.12139463198673,1 45760U 20038AG  26106.87188876  .00099209  00000+0  44923-3 0  9996,2 45760  53.0463 320.5073 0003990 165.2818 194.8321 15.83182149323421
STARLINK-1502,45764,53.0497,0.0005978,15.53215694,403.2879906898024,411.4007121935856,1 45764U 20038AL  26106.91787938  .00025422  00000+0  40339-3 0  9992,2 45764  53.0497  22.5535 0005978 130.0774 230.0761 15.53215694322567
STARLINK-1470,45772,53.047,0.0003184,15.313839,469.50145244855685,473.86341746473863,1 45772U 20038AU  26106.11232563  .00026645  00000+0  87575-3 0  9993,2 45772  53.0470   0.1760 0003184 134.0590 226.0673 15.31383900322802
STARLINK-1482,45773,53.1597,0.0003568,15.33489338,462.96948094426625,467.8530369818636,1 45773U 20038AV  26106.46175834  .00023901  00000+0  73703-3 0  9999,2 45773  53.1597  15.1757 0003568 130.2110 229.9205 15.33489338322636
STARLINK-1496,45780,53.0502,6.7e-05,15.5492436,401.91822029058585,402.82680856551906,1 45780U 20038BC  26106.96864152  .00056911  00000+0  83719-3 0  9995,2 45780  53.0502 353.7119 0000670 242.2528 117.8414 15.54924360322954
STARLINK-1513,45786,53.1593,0.0001425,15.31703133,469.7546922906231,471.7066195725638,1 45786U 20038BJ  26107.00002315 -.00011174  00000+0 -34879-3 0  9999,2 45786  53.1593  13.1874 0001425  87.9378 115.2757 15.31703133  5859
STARLINK-1522,46027,53.0647,0.0001971,15.10921704,532.0254977806271,534.7500208407482,1 46027U 20055A   26106.87250427  .00012360  00000+0  74943-3 0  9992,2 46027  53.0647 314.1541 0001971 160.0168 200.0901 15.10921704314656
STARLINK-1523,46028,53.1595,0.0001395,15.30200274,474.2582088052777,476.1702938043918,1 46028U 20055B   26106.60077674  .00001517  00000+0  63343-4 0  9990,2 46028  53.1595 310.6071 0001395  94.4377 265.6783 15.30200274314706
STARLINK-1526,46029,53.1597,0.0001275,15.30204122,474.32896107830584,476.0765627175897,1 46029U 20055C   26106.85571243  .00002194  00000+0  86174-4 0  9998,2 46029  53.1597 309.4354 0001275  95.4184 264.6962 15.30204122314730
STARLINK-1555,46032,53.1592,0.0001199,15.3019742,474.4010550083358,476.0444906818648,1 46032U 20055F   26105.99082086  .00001437  00000+0  60622-4 0  9997,2 46032  53.1592 313.4355 0001199  69.9318 290.1812 15.30197420314601
STARLINK-1556,46033,53.1595,0.0001298,15.30170168,474.4145671807264,476.1937205016675,1 46033U 20055G   26107.00002315  .00050083  00000+0  16933-2 0  9994,2 46033  53.1595 308.7664 0001298  79.8236 175.7009 15.30170168  5865
STARLINK-1557,46034,53.1551,0.0001692,15.29344149,476.61165813260504,478.93169762920024,1 46034U 20055H   26106.94906115  .00009556  00000+0  34317-3 0  9994,2 46034  53.1551 308.9145 0001692  99.0509 261.0683 15.29344149314724
STARLINK-1558,46035,53.1607,0.0001224,15.30204575,474.36256070670606,476.0402579493093,1 46035U 20055J   26106.83358432  .00001195  00000+0  52468-4 0  9995,2 46035  53.1607 309.5334 0001224  90.0552 270.0589 15.30204575314730
STARLINK-1560,46036,53.1552,0.0001158,15.29358116,476.9360269593517,478.5238457418109,1 46036U 20055K   26106.55370653  .00000296  00000+0  22603-4 0  9993,2 46036  53.1552 310.7888 0001158 109.8077 250.3048 15.29358116314690
STARLINK-1567,46038,53.0849,4.52e-05,15.88382542,306.51506746987525,307.1193873320326,1 46038U 20055M   26107.00002315  .00289496  00000+0  99288-3 0  9996,2 46038  53.0849 301.3303 0000452 289.0930 267.3724 15.88382542  1814
STARLINK-1569,46039,53.1584,0.0001303,15.30207416,474.29993778004973,476.08591555893963,1 46039U 20055N   26106.83674484  .00003447  00000+0  12843-3 0  9991,2 46039  53.1584 309.5133 0001303  89.3292 270.7858 15.30207416314727
STARLINK-1582,46043,53.1592,0.0001046,15.3167242,470.105809870689,471.5386121376305,1 46043U 20055S   26107.00002315  .00055613  00000+0  17921-2 0  9997,2 46043  53.1592 308.7152 0001046  88.6140  74.4772 15.31672420  5869
STARLINK-1591,46045,53.1602,0.0001018,15.30191584,474.54252439472657,475.9378719922779,1 46045U 20055U   26106.28157672 -.00001915  00000+0 -52562-4 0  9995,2 46045  53.1602 312.0946 0001018 100.7499 259.3617 15.30191584314629
STARLINK-1524,46047,53.1604,0.0001336,15.30201205,474.29586415309404,476.1270788646816,1 46047U 20055W   26106.66762575  .00001442  00000+0  60787-4 0  9994,2 46047  53.1604 297.4350 0001336  79.2791 280.8360 15.30201205314880
STARLINK-1527,46048,53.1609,0.0001599,15.30353952,473.6596575329377,475.85121253366196,1 46048U 20055X   26106.80439516  .00016359  00000+0  56056-3 0  9993,2 46048  53.1609 296.8960 0001599   2.1299 357.9708 15.30353952314884
